{
  "norad_id": 66213,
  "name": "STARLINK-34204",
  "history": [
    {
      "epoch": "2026-05-04T18:59:22.862112Z",
      "apogee_km": 475.6877029686293,
      "perigee_km": 474.6912293004534,
      "latitude_deg": -6.910243294316567e-05,
      "longitude_deg": -178.53061432519485,
      "height_km": 475.7940578539406,
      "semi_major_axis_km": 6853.326466134541,
      "eccentricity": 7.27e-05,
      "inclination_deg": 53.1579,
      "raan_deg": 328.9902,
      "arg_perigee_deg": 53.8115,
      "mean_anomaly_deg": 306.2952,
      "mean_motion_rev_day": 15.30208575
    },
    {
      "epoch": "2026-05-05T18:30:10.626048Z",
      "apogee_km": 475.88319677661457,
      "perigee_km": 474.53582885219384,
      "latitude_deg": 1.626182192408359e-06,
      "longitude_deg": -176.74743733794793,
      "height_km": 476.3485037967391,
      "semi_major_axis_km": 6853.3465128144035,
      "eccentricity": 9.83e-05,
      "inclination_deg": 53.1586,
      "raan_deg": 324.438,
      "arg_perigee_deg": 110.9244,
      "mean_anomaly_deg": 249.1862,
      "mean_motion_rev_day": 15.30201861
    },
    {
      "epoch": "2026-05-06T19:35:02.215104Z",
      "apogee_km": 475.627496761761,
      "perigee_km": 474.75027104862147,
      "latitude_deg": -3.897993679473717e-05,
      "longitude_deg": 161.15573406788386,
      "height_km": 476.03388989899344,
      "semi_major_axis_km": 6853.3258839051905,
      "eccentricity": 6.4e-05,
      "inclination_deg": 53.1592,
      "raan_deg": 319.5862,
      "arg_perigee_deg": 82.9497,
      "mean_anomaly_deg": 277.1576,
      "mean_motion_rev_day": 15.3020877
    },
    {
      "epoch": "2026-05-07T19:05:50.060256Z",
      "apogee_km": 475.63359578378004,
      "perigee_km": 474.75225755521024,
      "latitude_deg": -2.8234840221546196e-05,
      "longitude_deg": 162.93892730049618,
      "height_km": 476.1070899754607,
      "semi_major_axis_km": 6853.329926669495,
      "eccentricity": 6.43e-05,
      "inclination_deg": 53.1589,
      "raan_deg": 315.0344,
      "arg_perigee_deg": 91.9984,
      "mean_anomaly_deg": 268.109,
      "mean_motion_rev_day": 15.30207416
    },
    {
      "epoch": "2026-05-08T01:22:02.704800Z",
      "apogee_km": 475.6939838508797,
      "perigee_km": 474.68462595269375,
      "latitude_deg": -2.707759034816436e-05,
      "longitude_deg": 67.41673459298235,
      "height_km": 476.0211818431919,
      "semi_major_axis_km": 6853.326304901786,
      "eccentricity": 7.364e-05,
      "inclination_deg": 53.159,
      "raan_deg": 313.8224,
      "arg_perigee_deg": 82.3917,
      "mean_anomaly_deg": 277.7167,
      "mean_motion_rev_day": 15.30208629
    },
    {
      "epoch": "2026-05-09T18:07:26.275872Z",
      "apogee_km": 476.7499533119899,
      "perigee_km": 473.6865035248875,
      "latitude_deg": -8.43506933956062e-06,
      "longitude_deg": 166.50721960877496,
      "height_km": 476.34090254683946,
      "semi_major_axis_km": 6853.355228418439,
      "eccentricity": 0.0002235,
      "inclination_deg": 53.1608,
      "raan_deg": 305.9349,
      "arg_perigee_deg": 98.4797,
      "mean_anomaly_deg": 261.6457,
      "mean_motion_rev_day": 15.30198942
    },
    {
      "epoch": "2026-05-10T17:38:15.983808Z",
      "apogee_km": 476.1851716218607,
      "perigee_km": 474.3279019733882,
      "latitude_deg": -2.8317521375205443e-05,
      "longitude_deg": 168.2820093997038,
      "height_km": 476.4439188950316,
      "semi_major_axis_km": 6853.393536797624,
      "eccentricity": 0.0001355,
      "inclination_deg": 53.161,
      "raan_deg": 301.3825,
      "arg_perigee_deg": 108.1471,
      "mean_anomaly_deg": 251.9677,
      "mean_motion_rev_day": 15.30186112
    },
    {
      "epoch": "2026-05-11T18:43:06.249216Z",
      "apogee_km": 475.90730976843406,
      "perigee_km": 474.36806427372903,
      "latitude_deg": 6.246847353760024e-05,
      "longitude_deg": 146.19021263476128,
      "height_km": 476.14236498537025,
      "semi_major_axis_km": 6853.274687021081,
      "eccentricity": 0.0001123,
      "inclination_deg": 53.1609,
      "raan_deg": 296.5301,
      "arg_perigee_deg": 97.9385,
      "mean_anomaly_deg": 262.1744,
      "mean_motion_rev_day": 15.30225917
    },
    {
      "epoch": "2026-05-12T10:23:37.280832Z",
      "apogee_km": 476.0328982052961,
      "perigee_km": 474.2071905286757,
      "latitude_deg": -2.705732495812346e-05,
      "longitude_deg": -92.61701341096757,
      "height_km": 475.9981272477333,
      "semi_major_axis_km": 6853.257044366986,
      "eccentricity": 0.0001332,
      "inclination_deg": 53.1606,
      "raan_deg": 293.496,
      "arg_perigee_deg": 88.7453,
      "mean_anomaly_deg": 271.37,
      "mean_motion_rev_day": 15.30231826
    },
    {
      "epoch": "2026-05-13T03:38:11.632992Z",
      "apogee_km": 475.409605394766,
      "perigee_km": 474.91890902475006,
      "latitude_deg": -2.2684789226953356e-06,
      "longitude_deg": 4.693931709242051,
      "height_km": 476.25030284566884,
      "semi_major_axis_km": 6853.301257209758,
      "eccentricity": 3.58e-05,
      "inclination_deg": 53.1605,
      "raan_deg": 290.1582,
      "arg_perigee_deg": 220.6999,
      "mean_anomaly_deg": 139.3975,
      "mean_motion_rev_day": 15.30217018
    },
    {
      "epoch": "2026-05-14T09:25:11.535168Z",
      "apogee_km": 476.7533740735953,
      "perigee_km": 473.4303804555875,
      "latitude_deg": -2.8158821978805236e-05,
      "longitude_deg": -89.04213626600928,
      "height_km": 475.8372957413076,
      "semi_major_axis_km": 6853.228877264591,
      "eccentricity": 0.00024244,
      "inclination_deg": 53.1589,
      "raan_deg": 284.3949,
      "arg_perigee_deg": 84.789,
      "mean_anomaly_deg": 275.3387,
      "mean_motion_rev_day": 15.3024126
    }
  ]
}